TEVEL2-6                
1 63215U 25052F   26068.64958975  .00021046  00000+0  70909-3 0  9996
2 63215  97.4016 325.0381 0004769  95.6604 264.5181 15.30760889 54861
STARLINK-34557          
1 64726U 25144C   26068.63156197  .00043723  00000+0  14798-2 0  9990
2 64726  53.1600 181.2678 0001265  65.2242 294.8891 15.30196866 39705
